[
    {
        "Altitude(m)": 703239.5290791168,
        "Argument of Periapsis(deg)": 0.0022780242373254137,
        "Eccentricity": 0.0,
        "Inclination(deg)": 45.0,
        "Latitude(deg)": 1.5812230919001078,
        "Longitude(deg)": 171.44310180007975,
        "Mean Anomaly(deg)": 2.306643329496195,
        "RAAN(deg)": 269.9978496117084,
        "Satellite Name": "Constellation 1 1188",
        "Satellite Number": 1188,
        "Semi-Major Axis(m)": 7083131.272910544,
        "Time(s)": 38
    },
    {
        "Altitude(m)": 703234.6927204932,
        "Argument of Periapsis(deg)": 0.002337972243570819,
        "Eccentricity": 0.0,
        "Inclination(deg)": 45.0,
        "Latitude(deg)": 1.624424234946526,
        "Longitude(deg)": 171.48188656164956,
        "Mean Anomaly(deg)": 2.3673444697460817,
        "RAAN(deg)": 269.9977930225428,
        "Satellite Name": "Constellation 1 1188",
        "Satellite Number": 1188,
        "Semi-Major Axis(m)": 7083131.272910544,
        "Time(s)": 39
    },
    {
        "Altitude(m)": 703229.8771921379,
        "Argument of Periapsis(deg)": 0.0023979202498162246,
        "Eccentricity": 0.0,
        "Inclination(deg)": 45.0,
        "Latitude(deg)": 1.6676245083854344,
        "Longitude(deg)": 171.52067320815942,
        "Mean Anomaly(deg)": 2.428045609995968,
        "RAAN(deg)": 269.99773643337716,
        "Satellite Name": "Constellation 1 1188",
        "Satellite Number": 1188,
        "Semi-Major Axis(m)": 7083131.272910544,
        "Time(s)": 40
    },
    {
        "Altitude(m)": 703225.0824968843,
        "Argument of Periapsis(deg)": 0.00245786825606163,
        "Eccentricity": 0.0,
        "Inclination(deg)": 45.0,
        "Latitude(deg)": 1.7108238872023998,
        "Longitude(deg)": 171.55946178800053,
        "Mean Anomaly(deg)": 2.4887467502458547,
        "RAAN(deg)": 269.99767984421163,
        "Satellite Name": "Constellation 1 1188",
        "Satellite Number": 1188,
        "Semi-Major Axis(m)": 7083131.272910544,
        "Time(s)": 41
    },
    {
        "Altitude(m)": 703220.3086374729,
        "Argument of Periapsis(deg)": 0.002517816262307036,
        "Eccentricity": 0.0,
        "Inclination(deg)": 45.0,
        "Latitude(deg)": 1.7540223463791622,
        "Longitude(deg)": 171.59825234956858,
        "Mean Anomaly(deg)": 2.549447890495792,
        "RAAN(deg)": 269.99762325504605,
        "Satellite Name": "Constellation 1 1188",
        "Satellite Number": 1188,
        "Semi-Major Axis(m)": 7083131.272910544,
        "Time(s)": 42
    },
    {
        "Altitude(m)": 703215.5556165491,
        "Argument of Periapsis(deg)": 0.0025777642685524413,
        "Eccentricity": 0.0,
        "Inclination(deg)": 45.0,
        "Latitude(deg)": 1.797219860893553,
        "Longitude(deg)": 171.6370449412638,
        "Mean Anomaly(deg)": 2.6101490307456783,
        "RAAN(deg)": 269.9975666658805,
        "Satellite Name": "Constellation 1 1188",
        "Satellite Number": 1188,
        "Semi-Major Axis(m)": 7083131.272910544,
        "Time(s)": 43
    },
    {
        "Altitude(m)": 703210.8234366663,
        "Argument of Periapsis(deg)": 0.002637712274797847,
        "Eccentricity": 0.0,
        "Inclination(deg)": 45.0,
        "Latitude(deg)": 1.8404164057196932,
        "Longitude(deg)": 171.6758394433942,
        "Mean Anomaly(deg)": 2.670850170995565,
        "RAAN(deg)": 269.99751007671495,
        "Satellite Name": "Constellation 1 1188",
        "Satellite Number": 1188,
        "Semi-Major Axis(m)": 7083131.272910544,
        "Time(s)": 44
    },
    {
        "Altitude(m)": 703206.1121002835,
        "Argument of Periapsis(deg)": 0.0026976602810432526,
        "Eccentricity": 0.0,
        "Inclination(deg)": 45.0,
        "Latitude(deg)": 1.883611955826707,
        "Longitude(deg)": 171.7146362405639,
        "Mean Anomaly(deg)": 2.7315513112454513,
        "RAAN(deg)": 269.9974534875494,
        "Satellite Name": "Constellation 1 1188",
        "Satellite Number": 1188,
        "Semi-Major Axis(m)": 7083131.272910544,
        "Time(s)": 45
    },
    {
        "Altitude(m)": 703201.4216097652,
        "Argument of Periapsis(deg)": 0.0027576082872886585,
        "Eccentricity": 0.0,
        "Inclination(deg)": 45.0,
        "Latitude(deg)": 1.9268064861804364,
        "Longitude(deg)": 171.75343521309074,
        "Mean Anomaly(deg)": 2.792252451495389,
        "RAAN(deg)": 269.9973968983838,
        "Satellite Name": "Constellation 1 1188",
        "Satellite Number": 1188,
        "Semi-Major Axis(m)": 7083131.272910544,
        "Time(s)": 46
    },
    {
        "Altitude(m)": 703196.7519673862,
        "Argument of Periapsis(deg)": 0.0028175562935340644,
        "Eccentricity": 0.0,
        "Inclination(deg)": 45.0,
        "Latitude(deg)": 1.9699999717421377,
        "Longitude(deg)": 171.79223640939475,
        "Mean Anomaly(deg)": 2.8529535917452753,
        "RAAN(deg)": 269.9973403092182,
        "Satellite Name": "Constellation 1 1188",
        "Satellite Number": 1188,
        "Semi-Major Axis(m)": 7083131.272910544,
        "Time(s)": 47
    },
    {
        "Altitude(m)": 703192.1031753217,
        "Argument of Periapsis(deg)": 0.00287750429977947,
        "Eccentricity": 0.0,
        "Inclination(deg)": 45.0,
        "Latitude(deg)": 2.013192387468701,
        "Longitude(deg)": 171.83103987790128,
        "Mean Anomaly(deg)": 2.913654731995162,
        "RAAN(deg)": 269.9972837200527,
        "Satellite Name": "Constellation 1 1188",
        "Satellite Number": 1188,
        "Semi-Major Axis(m)": 7083131.272910544,
        "Time(s)": 48
    },
    {
        "Altitude(m)": 703187.4752356526,
        "Argument of Periapsis(deg)": 0.002937452306024875,
        "Eccentricity": 0.0,
        "Inclination(deg)": 45.0,
        "Latitude(deg)": 2.0563837083125587,
        "Longitude(deg)": 171.86984566704075,
        "Mean Anomaly(deg)": 2.974355872245099,
        "RAAN(deg)": 269.9972271308871,
        "Satellite Name": "Constellation 1 1188",
        "Satellite Number": 1188,
        "Semi-Major Axis(m)": 7083131.272910544,
        "Time(s)": 49
    },
    {
        "Altitude(m)": 703182.8681503758,
        "Argument of Periapsis(deg)": 0.0029974003122702807,
        "Eccentricity": 0.0,
        "Inclination(deg)": 45.0,
        "Latitude(deg)": 2.0995739092215815,
        "Longitude(deg)": 171.90865382524922,
        "Mean Anomaly(deg)": 3.0350570124949856,
        "RAAN(deg)": 269.9971705417215,
        "Satellite Name": "Constellation 1 1188",
        "Satellite Number": 1188,
        "Semi-Major Axis(m)": 7083131.272910544,
        "Time(s)": 50
    },
    {
        "Altitude(m)": 703178.2819213857,
        "Argument of Periapsis(deg)": 0.0030573483185156866,
        "Eccentricity": 0.0,
        "Inclination(deg)": 45.0,
        "Latitude(deg)": 2.1427629651389677,
        "Longitude(deg)": 171.94746440096804,
        "Mean Anomaly(deg)": 3.0957581527448212,
        "RAAN(deg)": 269.99711395255594,
        "Satellite Name": "Constellation 1 1188",
        "Satellite Number": 1188,
        "Semi-Major Axis(m)": 7083131.272910544,
        "Time(s)": 51
    },
    {
        "Altitude(m)": 703173.716550487,
        "Argument of Periapsis(deg)": 0.003117296324761092,
        "Eccentricity": 0.0,
        "Inclination(deg)": 45.0,
        "Latitude(deg)": 2.185950851003588,
        "Longitude(deg)": 171.98627727454752,
        "Mean Anomaly(deg)": 3.1564592929947075,
        "RAAN(deg)": 269.99705736339035,
        "Satellite Name": "Constellation 1 1188",
        "Satellite Number": 1188,
        "Semi-Major Axis(m)": 7083131.272910544,
        "Time(s)": 52
    },
    {
        "Altitude(m)": 703169.1720393888,
        "Argument of Periapsis(deg)": 0.0031772443310064975,
        "Eccentricity": 0.0,
        "Inclination(deg)": 45.0,
        "Latitude(deg)": 2.2291375417484773,
        "Longitude(deg)": 172.02509283063452,
        "Mean Anomaly(deg)": 3.217160433244645,
        "RAAN(deg)": 269.99700077422483,
        "Satellite Name": "Constellation 1 1188",
        "Satellite Number": 1188,
        "Semi-Major Axis(m)": 7083131.272910544,
        "Time(s)": 53
    },
    {
        "Altitude(m)": 703164.6483897098,
        "Argument of Periapsis(deg)": 0.0032371923372519038,
        "Eccentricity": 0.0,
        "Inclination(deg)": 45.0,
        "Latitude(deg)": 2.272323012302686,
        "Longitude(deg)": 172.0639109495907,
        "Mean Anomaly(deg)": 3.277861573494531,
        "RAAN(deg)": 269.99694418505925,
        "Satellite Name": "Constellation 1 1188",
        "Satellite Number": 1188,
        "Semi-Major Axis(m)": 7083131.272910544,
        "Time(s)": 54
    },
    {
        "Altitude(m)": 703160.1456029714,
        "Argument of Periapsis(deg)": 0.0032971403434973088,
        "Eccentricity": 0.0,
        "Inclination(deg)": 45.0,
        "Latitude(deg)": 2.315507237589963,
        "Longitude(deg)": 172.10273167988072,
        "Mean Anomaly(deg)": 3.3385627137444183,
        "RAAN(deg)": 269.99688759589367,
        "Satellite Name": "Constellation 1 1188",
        "Satellite Number": 1188,
        "Semi-Major Axis(m)": 7083131.272910544,
        "Time(s)": 55
    },
    {
        "Altitude(m)": 703155.6636806034,
        "Argument of Periapsis(deg)": 0.0033570883497427146,
        "Eccentricity": 0.0,
        "Inclination(deg)": 45.0,
        "Latitude(deg)": 2.358690192528953,
        "Longitude(deg)": 172.14155506997523,
        "Mean Anomaly(deg)": 3.3992638539943556,
        "RAAN(deg)": 269.9968310067281,
        "Satellite Name": "Constellation 1 1188",
        "Satellite Number": 1188,
        "Semi-Major Axis(m)": 7083131.272910544,
        "Time(s)": 56
    }
]